start=new Date('2022-06-21T00:00:00.000Z').valueOf();
sats=[{"FILE":"3498404","MEAN_MOTION":"15.06433643","OBJECT_TYPE":"PAYLOAD","EPHEMERIS_TYPE":"0","PERIAPSIS":"545.694","SITE":"AFETR","TLE_LINE2":"2 48106  53.0554 128.0245 0002046  58.7124 301.4065 15.06433643 68013","CENTER_NAME":"EARTH","APOAPSIS":"548.527","SEMIMAJOR_AXIS":"6925.245","GP_ID":"206513667","OBJECT_ID":"2021-027Q","MEAN_ELEMENT_THEORY":"SGP4","EPOCH":"2022-06-20T16:04:39.220032","MEAN_MOTION_DDOT":"0.0000000000000","NORAD_CAT_ID":"48106","RA_OF_ASC_NODE":"128.0245","LAUNCH_DATE":"2021-04-07","DECAY_DATE":null,"TIME_SYSTEM":"UTC","ARG_OF_PERICENTER":"58.7124","PERIOD":"95.590","ELEMENT_SET_NO":"999","INCLINATION":"53.0554","RCS_SIZE":"LARGE","TLE_LINE1":"1 48106U 21027Q   22171.66989838 -.00006302  00000-0 -40414-3 0  9990","REF_FRAME":"TEME","BSTAR":"-0.00040414000000","COUNTRY_CODE":"US","MEAN_MOTION_DOT":"-0.00006302","OBJECT_NAME":"STARLINK-2442","REV_AT_EPOCH":"6801","ECCENTRICITY":"0.00020460","MEAN_ANOMALY":"301.4065","CLASSIFICATION_TYPE":"U"},{"ECCENTRICITY":"0.00017810","MEAN_ANOMALY":"284.3748","CLASSIFICATION_TYPE":"U","REV_AT_EPOCH":"6800","MEAN_MOTION_DOT":"-0.00000446","OBJECT_NAME":"STARLINK-2443","BSTAR":"-0.00001106100000","COUNTRY_CODE":"US","REF_FRAME":"TEME","TLE_LINE1":"1 48107U 21027R   22171.61831143 -.00000446  00000-0 -11061-4 0  9991","INCLINATION":"53.0545","RCS_SIZE":"LARGE","PERIOD":"95.593","ELEMENT_SET_NO":"999","TIME_SYSTEM":"UTC","ARG_OF_PERICENTER":"75.7438","DECAY_DATE":null,"LAUNCH_DATE":"2021-04-07","NORAD_CAT_ID":"48107","RA_OF_ASC_NODE":"128.2414","MEAN_MOTION_DDOT":"0.0000000000000","EPOCH":"2022-06-20T14:50:22.107552","MEAN_ELEMENT_THEORY":"SGP4","GP_ID":"206513911","SEMIMAJOR_AXIS":"6925.367","OBJECT_ID":"2021-027R","APOAPSIS":"548.465","PERIAPSIS":"545.999","TLE_LINE2":"2 48107  53.0545 128.2414 0001781  75.7438 284.3748 15.06394002 68007","CENTER_NAME":"EARTH","SITE":"AFETR","OBJECT_TYPE":"PAYLOAD","EPHEMERIS_TYPE":"0","FILE":"3498404","MEAN_MOTION":"15.06394002"},{"FILE":"3498071","MEAN_MOTION":"15.06393282","EPHEMERIS_TYPE":"0","OBJECT_TYPE":"PAYLOAD","CENTER_NAME":"EARTH","TLE_LINE2":"2 48108  53.0551 139.5583 0001718  65.4442 294.6726 15.06393282 67815","SITE":"AFETR","PERIAPSIS":"546.044","APOAPSIS":"548.424","OBJECT_ID":"2021-027S","GP_ID":"206479851","SEMIMAJOR_AXIS":"6925.369","EPOCH":"2022-06-20T07:49:44.151744","MEAN_ELEMENT_THEORY":"SGP4","MEAN_MOTION_DDOT":"0.0000000000000","NORAD_CAT_ID":"48108","RA_OF_ASC_NODE":"139.5583","LAUNCH_DATE":"2021-04-07","DECAY_DATE":null,"ARG_OF_PERICENTER":"65.4442","TIME_SYSTEM":"UTC","ELEMENT_SET_NO":"999","PERIOD":"95.593","RCS_SIZE":"LARGE","INCLINATION":"53.0551","TLE_LINE1":"1 48108U 21027S   22171.32620546  .00000397  00000-0  45536-4 0  9990","REF_FRAME":"TEME","COUNTRY_CODE":"US","BSTAR":"0.00004553600000","OBJECT_NAME":"STARLINK-2444","MEAN_MOTION_DOT":"0.00000397","REV_AT_EPOCH":"6781","CLASSIFICATION_TYPE":"U","MEAN_ANOMALY":"294.6726","ECCENTRICITY":"0.00017180"},{"NORAD_CAT_ID":"48109","RA_OF_ASC_NODE":"148.0028","MEAN_MOTION_DDOT":"0.0000000000000","LAUNCH_DATE":"2021-04-07","EPOCH":"2022-06-20T16:07:19.973280","MEAN_ELEMENT_THEORY":"SGP4","TLE_LINE2":"2 48109  53.0537 148.0028 0001753  56.4304 303.6852 15.06408263 67733","CENTER_NAME":"EARTH","SITE":"AFETR","PERIAPSIS":"545.974","OBJECT_ID":"2021-027T","GP_ID":"206512923","SEMIMAJOR_AXIS":"6925.323","APOAPSIS":"548.402","FILE":"3498404","MEAN_MOTION":"15.06408263","EPHEMERIS_TYPE":"0","OBJECT_TYPE":"PAYLOAD","CLASSIFICATION_TYPE":"U","ECCENTRICITY":"0.00017530","MEAN_ANOMALY":"303.6852","REV_AT_EPOCH":"6773","OBJECT_NAME":"STARLINK-2445","MEAN_MOTION_DOT":"0.00001447","TLE_LINE1":"1 48109U 21027T   22171.67175895  .00001447  00000-0  11602-3 0  9994","COUNTRY_CODE":"US","BSTAR":"0.00011602000000","REF_FRAME":"TEME","ARG_OF_PERICENTER":"56.4304","TIME_SYSTEM":"UTC","DECAY_DATE":null,"RCS_SIZE":"LARGE","INCLINATION":"53.0537","ELEMENT_SET_NO":"999","PERIOD":"95.592"},{"TLE_LINE1":"1 48110U 21027U   22171.64686907 -.00003610  00000-0 -22353-3 0  9995","BSTAR":"-0.00022353000000","COUNTRY_CODE":"US","REF_FRAME":"TEME","TIME_SYSTEM":"UTC","ARG_OF_PERICENTER":"68.0837","DECAY_DATE":null,"INCLINATION":"53.0560","RCS_SIZE":"LARGE","PERIOD":"95.592","ELEMENT_SET_NO":"999","MEAN_ANOMALY":"292.0298","ECCENTRICITY":"0.00013720","CLASSIFICATION_TYPE":"U","REV_AT_EPOCH":"6787","MEAN_MOTION_DOT":"-0.00003610","OBJECT_NAME":"STARLINK-2447","PERIAPSIS":"546.241","SITE":"AFETR","TLE_LINE2":"2 48110  53.0560 138.1139 0001372  68.0837 292.0298 15.06407428 67873","CENTER_NAME":"EARTH","GP_ID":"206513167","SEMIMAJOR_AXIS":"6925.326","OBJECT_ID":"2021-027U","APOAPSIS":"548.141","MEAN_MOTION":"15.06407428","FILE":"3498404","OBJECT_TYPE":"PAYLOAD","EPHEMERIS_TYPE":"0","NORAD_CAT_ID":"48110","RA_OF_ASC_NODE":"138.1139","MEAN_MOTION_DDOT":"0.0000000000000","LAUNCH_DATE":"2021-04-07","MEAN_ELEMENT_THEORY":"SGP4","EPOCH":"2022-06-20T15:31:29.487648"},{"REV_AT_EPOCH":"6787","OBJECT_NAME":"STARLINK-2448","MEAN_MOTION_DOT":"0.00001469","CLASSIFICATION_TYPE":"U","MEAN_ANOMALY":"302.6600","ECCENTRICITY":"0.00014810","RCS_SIZE":"LARGE","INCLINATION":"53.0539","ELEMENT_SET_NO":"999","PERIOD":"95.592","ARG_OF_PERICENTER":"57.4532","TIME_SYSTEM":"UTC","DECAY_DATE":null,"COUNTRY_CODE":"US","BSTAR":"0.00011750000000","REF_FRAME":"TEME","TLE_LINE1":"1 48111U 21027V   22171.63950302  .00001469  00000-0  11750-3 0  9995","MEAN_ELEMENT_THEORY":"SGP4","EPOCH":"2022-06-20T15:20:53.060928","LAUNCH_DATE":"2021-04-07","NORAD_CAT_ID":"48111","RA_OF_ASC_NODE":"138.1205","MEAN_MOTION_DDOT":"0.0000000000000","EPHEMERIS_TYPE":"0","OBJECT_TYPE":"PAYLOAD","MEAN_MOTION":"15.06398047","FILE":"3498404","OBJECT_ID":"2021-027V","GP_ID":"206513411","SEMIMAJOR_AXIS":"6925.355","APOAPSIS":"548.245","SITE":"AFETR","TLE_LINE2":"2 48111  53.0539 138.1205 0001481  57.4532 302.6600 15.06398047 67870","CENTER_NAME":"EARTH","PERIAPSIS":"546.194"},{"REV_AT_EPOCH":"6723","MEAN_MOTION_DOT":"0.00023244","OBJECT_NAME":"STARLINK-2449","ECCENTRICITY":"0.00015680","MEAN_ANOMALY":"266.0173","CLASSIFICATION_TYPE":"U","TIME_SYSTEM":"UTC","ARG_OF_PERICENTER":"94.0995","DECAY_DATE":null,"INCLINATION":"53.0559","RCS_SIZE":"LARGE","PERIOD":"95.600","ELEMENT_SET_NO":"999","TLE_LINE1":"1 48112U 21027W   22171.49988260  .00023244  00000-0  15793-2 0  9999","BSTAR":"0.00157930000000","COUNTRY_CODE":"US","REF_FRAME":"TEME","EPOCH":"2022-06-20T11:59:49.856640","MEAN_ELEMENT_THEORY":"SGP4","NORAD_CAT_ID":"48112","RA_OF_ASC_NODE":"153.9323","MEAN_MOTION_DDOT":"0.0000000000000","LAUNCH_DATE":"2021-04-07","FILE":"3498184","MEAN_MOTION":"15.06279888","OBJECT_TYPE":"PAYLOAD","EPHEMERIS_TYPE":"0","PERIAPSIS":"546.496","TLE_LINE2":"2 48112  53.0559 153.9323 0001568  94.0995 266.0173 15.06279888 67234","SITE":"AFETR","CENTER_NAME":"EARTH","SEMIMAJOR_AXIS":"6925.717","GP_ID":"206486150","OBJECT_ID":"2021-027W","APOAPSIS":"548.668"},{"APOAPSIS":"548.347","OBJECT_ID":"2021-027X","GP_ID":"206512423","SEMIMAJOR_AXIS":"6925.356","TLE_LINE2":"2 48113  53.0534 148.1677 0001625  61.2423 298.8729 15.06397491 67716","CENTER_NAME":"EARTH","SITE":"AFETR","PERIAPSIS":"546.096","EPHEMERIS_TYPE":"0","OBJECT_TYPE":"PAYLOAD","FILE":"3498404","MEAN_MOTION":"15.06397491","LAUNCH_DATE":"2021-04-07","MEAN_MOTION_DDOT":"0.0000000000000","NORAD_CAT_ID":"48113","RA_OF_ASC_NODE":"148.1677","EPOCH":"2022-06-20T15:14:15.023040","MEAN_ELEMENT_THEORY":"SGP4","REF_FRAME":"TEME","COUNTRY_CODE":"US","BSTAR":"0.00001591300000","TLE_LINE1":"1 48113U 21027X   22171.63489610 -.00000045  00000-0  15913-4 0  9992","ELEMENT_SET_NO":"999","PERIOD":"95.592","RCS_SIZE":"LARGE","INCLINATION":"53.0534","DECAY_DATE":null,"ARG_OF_PERICENTER":"61.2423","TIME_SYSTEM":"UTC","CLASSIFICATION_TYPE":"U","MEAN_ANOMALY":"298.8729","ECCENTRICITY":"0.00016250","OBJECT_NAME":"STARLINK-2450","MEAN_MOTION_DOT":"-0.00000045","REV_AT_EPOCH":"6771"},{"COUNTRY_CODE":"US","BSTAR":"0.00005372500000","REF_FRAME":"TEME","TLE_LINE1":"1 48114U 21027Y   22171.72840092  .00000519  00000-0  53725-4 0  9996","RCS_SIZE":"LARGE","INCLINATION":"53.0524","ELEMENT_SET_NO":"999","PERIOD":"95.592","ARG_OF_PERICENTER":"72.1707","TIME_SYSTEM":"UTC","DECAY_DATE":null,"CLASSIFICATION_TYPE":"U","MEAN_ANOMALY":"287.9482","ECCENTRICITY":"0.00018310","REV_AT_EPOCH":"6781","OBJECT_NAME":"STARLINK-2451","MEAN_MOTION_DOT":"0.00000519","OBJECT_ID":"2021-027Y","SEMIMAJOR_AXIS":"6925.348","GP_ID":"206513668","APOAPSIS":"548.481","CENTER_NAME":"EARTH","TLE_LINE2":"2 48114  53.0524 142.7516 0001831  72.1707 287.9482 15.06400159 67815","SITE":"AFETR","PERIAPSIS":"545.945","EPHEMERIS_TYPE":"0","OBJECT_TYPE":"PAYLOAD","MEAN_MOTION":"15.06400159","FILE":"3498404","LAUNCH_DATE":"2021-04-07","RA_OF_ASC_NODE":"142.7516","NORAD_CAT_ID":"48114","MEAN_MOTION_DDOT":"0.0000000000000","EPOCH":"2022-06-20T17:28:53.839488","MEAN_ELEMENT_THEORY":"SGP4"},{"SITE":"AFETR","TLE_LINE2":"2 48115  53.0542 139.7101 0001979  59.7480 300.3704 15.06388712 67811","CENTER_NAME":"EARTH","PERIAPSIS":"545.878","APOAPSIS":"548.619","OBJECT_ID":"2021-027Z","SEMIMAJOR_AXIS":"6925.383","GP_ID":"206479102","MEAN_MOTION":"15.06388712","FILE":"3498071","EPHEMERIS_TYPE":"0","OBJECT_TYPE":"PAYLOAD","MEAN_MOTION_DDOT":"0.0000000000000","NORAD_CAT_ID":"48115","RA_OF_ASC_NODE":"139.7101","LAUNCH_DATE":"2021-04-07","EPOCH":"2022-06-20T07:00:36.200160","MEAN_ELEMENT_THEORY":"SGP4","TLE_LINE1":"1 48115U 21027Z   22171.29208565  .00000641  00000-0  61983-4 0  9993","REF_FRAME":"TEME","COUNTRY_CODE":"US","BSTAR":"0.00006198300000","DECAY_DATE":null,"ARG_OF_PERICENTER":"59.7480","TIME_SYSTEM":"UTC","ELEMENT_SET_NO":"999","PERIOD":"95.593","RCS_SIZE":"LARGE","INCLINATION":"53.0542","CLASSIFICATION_TYPE":"U","MEAN_ANOMALY":"300.3704","ECCENTRICITY":"0.00019790","OBJECT_NAME":"STARLINK-2452","MEAN_MOTION_DOT":"0.00000641","REV_AT_EPOCH":"6781"}];
